ONEWEB-0446             
1 51640U 22012U   24250.28467515  .00000496  00000+0  13851-2 0  9992
2 51640  87.8996 165.4006 0002177  75.5353 284.6016 13.10376530124342
ONEWEB-0448             
1 51641U 22012V   24250.28965863  .00001160  00000+0  32855-2 0  9996
2 51641  87.8994 165.4003 0001752  74.9799 285.1522 13.10373300124310
ONEWEB-0449             
1 51642U 22012W   24250.29464960  .00006726  00000+0  19227-1 0  9990
2 51642  87.8987 165.3898 0001997  71.3117 288.8227 13.10344716124322
ONEWEB-0451             
1 51643U 22012X   24250.18265426  .00000150  00000+0  35202-3 0  9993
2 51643  87.9150 135.1202 0001664  75.7583 284.3734 13.17652231128190
ONEWEB-0452             
1 51644U 22012Y   24250.18104593  .00000177  00000+0  42179-3 0  9991
2 51644  87.9156 135.1653 0001641  63.1089 297.0210 13.17648630128204
ONEWEB-0456             
1 51646U 22012AA  24250.30461678  .00000595  00000+0  16676-2 0  9993
2 51646  87.8979 165.3570 0001841  84.8721 275.2617 13.10371513124364
ONEWEB-0457             
1 51647U 22012AB  24250.28135778  .00000343  00000+0  94751-3 0  9992
2 51647  87.8996 165.3913 0002123  69.4826 290.6529 13.10374305124369
ONEWEB-0458             
1 51648U 22012AC  24250.30293919  .00000607  00000+0  17034-2 0  9999
2 51648  87.8992 165.4035 0001721  71.6056 288.5259 13.10371501124322
